start=new Date('2022-02-27T00:00:00.000Z').valueOf();
sats=[{"SEMIMAJOR_AXIS":"6822.883","MEAN_MOTION_DOT":"-0.00010407","OBJECT_NAME":"STARLINK-3204","ELEMENT_SET_NO":"999","SITE":"AFETR","RA_OF_ASC_NODE":"272.2419","OBJECT_TYPE":"PAYLOAD","DECAY_DATE":null,"PERIOD":"93.478","INCLINATION":"53.2178","PERIAPSIS":"442.501","MEAN_ANOMALY":"331.7501","BSTAR":"-0.00024351000000","GP_ID":"197160734","TIME_SYSTEM":"UTC","APOAPSIS":"446.996","OBJECT_ID":"2021-115AM","FILE":"3327391","ECCENTRICITY":"0.00032940","NORAD_CAT_ID":"49759","TLE_LINE1":"1 49759U 21115AM  22057.91667824 -.00010407  00000-0 -24351-3 0  9995","EPHEMERIS_TYPE":"0","LAUNCH_DATE":"2021-12-02","ARG_OF_PERICENTER":"17.3025","MEAN_ELEMENT_THEORY":"SGP4","RCS_SIZE":"LARGE","REV_AT_EPOCH":"365","MEAN_MOTION_DDOT":"0.0000000000000","CENTER_NAME":"EARTH","CLASSIFICATION_TYPE":"U","REF_FRAME":"TEME","COUNTRY_CODE":"US","MEAN_MOTION":"15.40461515","TLE_LINE2":"2 49759  53.2178 272.2419 0003294  17.3025 331.7501 15.40461515  3651","EPOCH":"2022-02-26T22:00:00.999936"},{"OBJECT_TYPE":"PAYLOAD","RA_OF_ASC_NODE":"272.2470","DECAY_DATE":null,"SITE":"AFETR","ELEMENT_SET_NO":"999","SEMIMAJOR_AXIS":"6822.883","MEAN_MOTION_DOT":"0.00017778","OBJECT_NAME":"STARLINK-3199","BSTAR":"0.00044107000000","PERIOD":"93.478","INCLINATION":"53.2172","MEAN_ANOMALY":"322.6144","PERIAPSIS":"442.717","GP_ID":"197160984","TIME_SYSTEM":"UTC","NORAD_CAT_ID":"49760","ECCENTRICITY":"0.00029770","FILE":"3327391","OBJECT_ID":"2021-115AN","APOAPSIS":"446.779","EPHEMERIS_TYPE":"0","TLE_LINE1":"1 49760U 21115AN  22057.91667824  .00017778  00000-0  44107-3 0  9994","MEAN_ELEMENT_THEORY":"SGP4","REV_AT_EPOCH":"365","RCS_SIZE":"MEDIUM","LAUNCH_DATE":"2021-12-02","ARG_OF_PERICENTER":"21.1858","MEAN_MOTION":"15.40461528","REF_FRAME":"TEME","CLASSIFICATION_TYPE":"U","MEAN_MOTION_DDOT":"0.0000000000000","CENTER_NAME":"EARTH","COUNTRY_CODE":"US","EPOCH":"2022-02-26T22:00:00.999936","TLE_LINE2":"2 49760  53.2172 272.2470 0002977  21.1858 322.6144 15.40461528  3654"},{"SEMIMAJOR_AXIS":"6822.865","MEAN_MOTION_DOT":"-0.00027932","OBJECT_NAME":"STARLINK-3203","ELEMENT_SET_NO":"999","SITE":"AFETR","RA_OF_ASC_NODE":"272.2450","OBJECT_TYPE":"PAYLOAD","DECAY_DATE":null,"INCLINATION":"53.2176","PERIOD":"93.478","PERIAPSIS":"442.566","MEAN_ANOMALY":"326.5897","BSTAR":"-0.00067161000000","GP_ID":"197162236","TIME_SYSTEM":"UTC","APOAPSIS":"446.895","OBJECT_ID":"2021-115AP","FILE":"3327391","ECCENTRICITY":"0.00031730","NORAD_CAT_ID":"49761","TLE_LINE1":"1 49761U 21115AP  22057.91667824 -.00027932  00000-0 -67161-3 0  9995","EPHEMERIS_TYPE":"0","LAUNCH_DATE":"2021-12-02","ARG_OF_PERICENTER":"20.3589","MEAN_ELEMENT_THEORY":"SGP4","RCS_SIZE":"LARGE","REV_AT_EPOCH":"365","CENTER_NAME":"EARTH","MEAN_MOTION_DDOT":"0.0000000000000","CLASSIFICATION_TYPE":"U","REF_FRAME":"TEME","COUNTRY_CODE":"US","MEAN_MOTION":"15.40467531","TLE_LINE2":"2 49761  53.2176 272.2450 0003173  20.3589 326.5897 15.40467531  3656","EPOCH":"2022-02-26T22:00:00.999936"},{"TLE_LINE2":"2 49762  53.2175 272.2537 0002976  27.5816 314.1222 15.40479503  3651","EPOCH":"2022-02-26T22:00:00.999936","COUNTRY_CODE":"US","MEAN_MOTION_DDOT":"0.0000000000000","CLASSIFICATION_TYPE":"U","CENTER_NAME":"EARTH","REF_FRAME":"TEME","MEAN_MOTION":"15.40479503","LAUNCH_DATE":"2021-12-02","ARG_OF_PERICENTER":"27.5816","RCS_SIZE":"LARGE","REV_AT_EPOCH":"365","MEAN_ELEMENT_THEORY":"SGP4","TLE_LINE1":"1 49762U 21115AQ  22057.91667824 -.00026603  00000-0 -63882-3 0  9996","EPHEMERIS_TYPE":"0","APOAPSIS":"446.726","OBJECT_ID":"2021-115AQ","FILE":"3327391","ECCENTRICITY":"0.00029760","NORAD_CAT_ID":"49762","TIME_SYSTEM":"UTC","GP_ID":"197161982","PERIAPSIS":"442.665","MEAN_ANOMALY":"314.1222","PERIOD":"93.477","INCLINATION":"53.2175","BSTAR":"-0.00063882000000","ELEMENT_SET_NO":"999","SEMIMAJOR_AXIS":"6822.830","MEAN_MOTION_DOT":"-0.00026603","OBJECT_NAME":"STARLINK-3195","SITE":"AFETR","DECAY_DATE":null,"RA_OF_ASC_NODE":"272.2537","OBJECT_TYPE":"PAYLOAD"},{"TLE_LINE1":"1 49763U 21115AR  22057.91667824 -.00024727  00000-0 -59300-3 0  9992","EPHEMERIS_TYPE":"0","ARG_OF_PERICENTER":"17.9542","LAUNCH_DATE":"2021-12-02","MEAN_ELEMENT_THEORY":"SGP4","REV_AT_EPOCH":"365","RCS_SIZE":"LARGE","REF_FRAME":"TEME","MEAN_MOTION_DDOT":"0.0000000000000","CENTER_NAME":"EARTH","CLASSIFICATION_TYPE":"U","COUNTRY_CODE":"US","MEAN_MOTION":"15.40477723","EPOCH":"2022-02-26T22:00:00.999936","TLE_LINE2":"2 49763  53.2175 272.2479 0002842  17.9542 326.9162 15.40477723  3654","SITE":"AFETR","MEAN_MOTION_DOT":"-0.00024727","SEMIMAJOR_AXIS":"6822.835","OBJECT_NAME":"STARLINK-3198","ELEMENT_SET_NO":"999","OBJECT_TYPE":"PAYLOAD","RA_OF_ASC_NODE":"272.2479","DECAY_DATE":null,"PERIOD":"93.477","INCLINATION":"53.2175","MEAN_ANOMALY":"326.9162","PERIAPSIS":"442.761","BSTAR":"-0.00059300000000","GP_ID":"197161235","TIME_SYSTEM":"UTC","FILE":"3327391","OBJECT_ID":"2021-115AR","APOAPSIS":"446.639","NORAD_CAT_ID":"49763","ECCENTRICITY":"0.00028420"},{"REV_AT_EPOCH":"365","RCS_SIZE":"LARGE","MEAN_ELEMENT_THEORY":"SGP4","ARG_OF_PERICENTER":"19.8620","LAUNCH_DATE":"2021-12-02","EPHEMERIS_TYPE":"0","TLE_LINE1":"1 49764U 21115AS  22057.91667824 -.00022529  00000-0 -53943-3 0  9998","EPOCH":"2022-02-26T22:00:00.999936","TLE_LINE2":"2 49764  53.2170 272.2541 0002586  19.8620 319.7678 15.40468922  3656","MEAN_MOTION":"15.40468922","COUNTRY_CODE":"US","REF_FRAME":"TEME","CLASSIFICATION_TYPE":"U","MEAN_MOTION_DDOT":"0.0000000000000","CENTER_NAME":"EARTH","BSTAR":"-0.00053943000000","MEAN_ANOMALY":"319.7678","PERIAPSIS":"442.962","PERIOD":"93.478","INCLINATION":"53.2170","DECAY_DATE":null,"OBJECT_TYPE":"PAYLOAD","RA_OF_ASC_NODE":"272.2541","SITE":"AFETR","OBJECT_NAME":"STARLINK-3206","SEMIMAJOR_AXIS":"6822.861","MEAN_MOTION_DOT":"-0.00022529","ELEMENT_SET_NO":"999","ECCENTRICITY":"0.00025860","NORAD_CAT_ID":"49764","FILE":"3327391","OBJECT_ID":"2021-115AS","APOAPSIS":"446.491","TIME_SYSTEM":"UTC","GP_ID":"197161485"},{"ECCENTRICITY":"0.00027720","NORAD_CAT_ID":"49765","FILE":"3327391","OBJECT_ID":"2021-115AT","APOAPSIS":"446.647","GP_ID":"197161736","TIME_SYSTEM":"UTC","BSTAR":"0.00026426000000","INCLINATION":"53.2175","PERIOD":"93.479","MEAN_ANOMALY":"318.4080","PERIAPSIS":"442.864","OBJECT_TYPE":"PAYLOAD","RA_OF_ASC_NODE":"272.2519","DECAY_DATE":null,"SITE":"AFETR","SEMIMAJOR_AXIS":"6822.890","MEAN_MOTION_DOT":"0.00010478","OBJECT_NAME":"STARLINK-3227","ELEMENT_SET_NO":"999","EPOCH":"2022-02-26T22:00:00.999936","TLE_LINE2":"2 49765  53.2175 272.2519 0002772  24.3525 318.4080 15.40459096  3654","MEAN_MOTION":"15.40459096","REF_FRAME":"TEME","MEAN_MOTION_DDOT":"0.0000000000000","CLASSIFICATION_TYPE":"U","CENTER_NAME":"EARTH","COUNTRY_CODE":"US","MEAN_ELEMENT_THEORY":"SGP4","REV_AT_EPOCH":"365","RCS_SIZE":"LARGE","LAUNCH_DATE":"2021-12-02","ARG_OF_PERICENTER":"24.3525","EPHEMERIS_TYPE":"0","TLE_LINE1":"1 49765U 21115AT  22057.91667824  .00010478  00000-0  26426-3 0  9993"},{"BSTAR":"-0.00055214000000","PERIOD":"93.478","INCLINATION":"53.2170","PERIAPSIS":"442.380","MEAN_ANOMALY":"321.3656","RA_OF_ASC_NODE":"272.2556","OBJECT_TYPE":"PAYLOAD","DECAY_DATE":null,"SEMIMAJOR_AXIS":"6822.873","ELEMENT_SET_NO":"999","MEAN_MOTION_DOT":"-0.00023049","OBJECT_NAME":"STARLINK-3190","SITE":"AFETR","NORAD_CAT_ID":"49766","ECCENTRICITY":"0.00034550","APOAPSIS":"447.095","FILE":"3327391","OBJECT_ID":"2021-115AU","GP_ID":"197162483","TIME_SYSTEM":"UTC","MEAN_ELEMENT_THEORY":"SGP4","RCS_SIZE":"LARGE","REV_AT_EPOCH":"365","ARG_OF_PERICENTER":"17.1554","LAUNCH_DATE":"2021-12-02","EPHEMERIS_TYPE":"0","TLE_LINE1":"1 49766U 21115AU  22057.91667824 -.00023049  00000-0 -55214-3 0  9991","TLE_LINE2":"2 49766  53.2170 272.2556 0003455  17.1554 321.3656 15.40465127  3656","EPOCH":"2022-02-26T22:00:00.999936","MEAN_MOTION":"15.40465127","CENTER_NAME":"EARTH","MEAN_MOTION_DDOT":"0.0000000000000","CLASSIFICATION_TYPE":"U","REF_FRAME":"TEME","COUNTRY_CODE":"US"},{"TLE_LINE1":"1 49767U 21115AV  22057.91667824 -.00032818  00000-0 -79087-3 0  9990","EPHEMERIS_TYPE":"0","LAUNCH_DATE":"2021-12-02","ARG_OF_PERICENTER":"18.7339","MEAN_ELEMENT_THEORY":"SGP4","RCS_SIZE":"LARGE","REV_AT_EPOCH":"365","MEAN_MOTION_DDOT":"0.0000000000000","CLASSIFICATION_TYPE":"U","CENTER_NAME":"EARTH","REF_FRAME":"TEME","COUNTRY_CODE":"US","MEAN_MOTION":"15.40484395","TLE_LINE2":"2 49767  53.2173 272.2548 0003092  18.7339 321.9323 15.40484395  3651","EPOCH":"2022-02-26T22:00:00.999936","SEMIMAJOR_AXIS":"6822.816","MEAN_MOTION_DOT":"-0.00032818","ELEMENT_SET_NO":"999","OBJECT_NAME":"STARLINK-3192","SITE":"AFETR","RA_OF_ASC_NODE":"272.2548","OBJECT_TYPE":"PAYLOAD","DECAY_DATE":null,"PERIOD":"93.477","INCLINATION":"53.2173","PERIAPSIS":"442.571","MEAN_ANOMALY":"321.9323","BSTAR":"-0.00079087000000","GP_ID":"197160735","TIME_SYSTEM":"UTC","APOAPSIS":"446.790","FILE":"3327391","OBJECT_ID":"2021-115AV","ECCENTRICITY":"0.00030920","NORAD_CAT_ID":"49767"},{"DECAY_DATE":null,"OBJECT_TYPE":"PAYLOAD","RA_OF_ASC_NODE":"272.2580","SITE":"AFETR","OBJECT_NAME":"STARLINK-3196","SEMIMAJOR_AXIS":"6822.858","MEAN_MOTION_DOT":"-0.00019672","ELEMENT_SET_NO":"999","BSTAR":"-0.00046952000000","MEAN_ANOMALY":"322.4470","PERIAPSIS":"442.384","INCLINATION":"53.2168","PERIOD":"93.478","TIME_SYSTEM":"UTC","GP_ID":"197160985","NORAD_CAT_ID":"49768","ECCENTRICITY":"0.00034270","OBJECT_ID":"2021-115AW","FILE":"3327391","APOAPSIS":"447.061","EPHEMERIS_TYPE":"0","TLE_LINE1":"1 49768U 21115AW  22057.91667824 -.00019672  00000-0 -46952-3 0  9999","REV_AT_EPOCH":"365","RCS_SIZE":"LARGE","MEAN_ELEMENT_THEORY":"SGP4","ARG_OF_PERICENTER":"14.0211","LAUNCH_DATE":"2021-12-02","MEAN_MOTION":"15.40470206","COUNTRY_CODE":"US","REF_FRAME":"TEME","CLASSIFICATION_TYPE":"U","MEAN_MOTION_DDOT":"0.0000000000000","CENTER_NAME":"EARTH","EPOCH":"2022-02-26T22:00:00.999936","TLE_LINE2":"2 49768  53.2168 272.2580 0003427  14.0211 322.4470 15.40470206  3657"}];
